0 SCOUT G-1 DEB
1 29211U 87080P   13283.78492970  .00001931  00000-0  16856-2 0  4167
2 29211 090.3500 307.2828 0104789 088.9848 272.3787 13.83350554453553
0 SCOUT G-1 DEB
1 29211U 87080P   13285.30393167  .00002233  00000-0  19433-2 0  4187
2 29211 090.3489 307.3359 0101976 081.6639 279.7857 13.83359984453760
0 SCOUT G-1 DEB
1 29211U 87080P   13287.32918210  .00002293  00000-0  19959-2 0  4193
2 29211 090.3469 307.4065 0101667 075.2682 286.0058 13.83371052454043
0 SCOUT G-1 DEB
1 29211U 87080P   13289.78843090  .00002404  00000-0  20896-2 0  4206
2 29211 090.3574 307.5131 0103810 073.0773 288.3117 13.83386152454389
0 SCOUT G-1 DEB
1 29211U 87080P   13291.30734047  .00002467  00000-0  21469-2 0  4215
2 29211 090.3562 307.5711 0102017 067.3315 293.9196 13.83395591454595
0 SCOUT G-1 DEB
1 29211U 87080P   13292.31994629  .00002545  00000-0  22132-2 0  4227
2 29211 090.3522 307.6053 0102833 061.7911 299.3422 13.83402040454733
0 SCOUT G-1 DEB
1 29211U 87080P   13295.28543838  .00002622  00000-0  22803-2 0  4230
2 29211 090.3500 307.7157 0102834 051.7037 309.3707 13.83419738455140
